{
  "type": "Feature",
  "properties": {
    "zone_name": "F",
    "orchard": "Vidarbha Orange Estate",
    "area_acres": 6.25
  },
  "geometry": {
    "type": "Polygon",
    "coordinates": [
      [
        [
          79.08326,
          21.146025
        ],
        [
          79.08794,
          21.146025
        ],
        [
          79.08794,
          21.150075
        ],
        [
          79.08326,
          21.150075
        ],
        [
          79.08326,
          21.146025
        ]
      ]
    ]
  }
}