{
  "type": "Feature",
  "properties": {
    "zone_name": "D",
    "orchard": "Vidarbha Orange Estate",
    "area_acres": 6.25
  },
  "geometry": {
    "type": "Polygon",
    "coordinates": [
      [
        [
          79.09366,
          21.141525
        ],
        [
          79.09834000000001,
          21.141525
        ],
        [
          79.09834000000001,
          21.145575
        ],
        [
          79.09366,
          21.145575
        ],
        [
          79.09366,
          21.141525
        ]
      ]
    ]
  }
}